{"type": "FeatureCollection", "features": [ {"type": "Feature", "properties": {"norad_id": 34823, "name": "COSMOS 2251 DEB", "group": "cosmos-2251-debris", "lat": 62.89191402608817, "lon": 131.43204742368093, "alt_km": 745.7401780265136, "timestamp": "2025-12-15T07:02:38.010042+00:00", "meta": {"OBJECT_NAME": "COSMOS 2251 DEB", "OBJECT_ID": "1993-036ABN", "EPOCH": "2025-12-14T17:31:25.880160", "MEAN_MOTION": 14.54947797, "ECCENTRICITY": 0.01545511, "INCLINATION": 74.0414, "RA_OF_ASC_NODE": 98.5117, "ARG_OF_PERICENTER": 182.8015, "MEAN_ANOMALY": 177.2302, "EPHEMERIS_TYPE": 0, "CLASSIFICATION_TYPE": "U", "NORAD_CAT_ID": 34823, "ELEMENT_SET_NO": 999, "REV_AT_EPOCH": 88410, "BSTAR": 0.0007013707, "MEAN_MOTION_DOT": 3.511e-05, "MEAN_MOTION_DDOT": 0}, "tle": {"line1": "1 34823U 93036ABN 25348.73016065  .00003511  00000+0  70137-3 0  9991", "line2": "2 34823  74.0414  98.5117 0154551 182.8015 177.2302 14.54947797884109"}}, "geometry": {"type": "Point", "coordinates": [131.43204742368093, 62.89191402608817]}}, {"type": "Feature", "properties": {"norad_id": 34845, "name": "COSMOS 2251 DEB", "group": "cosmos-2251-debris", "lat": -43.524379258321, "lon": 127.79720952383359, "alt_km": 729.9145258236567, "timestamp": "2025-12-15T07:02:38.010052+00:00", "meta": {"OBJECT_NAME": "COSMOS 2251 DEB", "OBJECT_ID": "1993-036ABP", "EPOCH": "2025-12-09T20:04:05.418048", "MEAN_MOTION": 14.45850049, "ECCENTRICITY": 0.00222586, "INCLINATION": 74.0237, "RA_OF_ASC_NODE": 153.7694, "ARG_OF_PERICENTER": 315.2139, "MEAN_ANOMALY": 44.7222, "EPHEMERIS_TYPE": 0, "CLASSIFICATION_TYPE": "U", "NORAD_CAT_ID": 34845, "ELEMENT_SET_NO": 999, "REV_AT_EPOCH": 87424, "BSTAR": 0.00046671234, "MEAN_MOTION_DOT": 1.636e-05, "MEAN_MOTION_DDOT": 0}, "tle": {"line1": "1 34845U 93036ABP 25343.83617382  .00001636  00000+0  46671-3 0  9992", "line2": "2 34845  74.0237 153.7694 0022258 315.2139  44.7222 14.45850049874243"}}, "geometry": {"type": "Point", "coordinates": [127.79720952383359, -43.524379258321]}}, {"type": "Feature", "properties": {"norad_id": 34846, "name": "COSMOS 2251 DEB", "group": "cosmos-2251-debris", "lat": -73.47983391084605, "lon": 151.8945150004663, "alt_km": 731.5698313961857, "timestamp": "2025-12-15T07:02:38.010062+00:00", "meta": {"OBJECT_NAME": "COSMOS 2251 DEB", "OBJECT_ID": "1993-036ABQ", "EPOCH": "2025-12-14T21:31:21.915552", "MEAN_MOTION": 14.47230396, "ECCENTRICITY": 0.00261368, "INCLINATION": 74.0309, "RA_OF_ASC_NODE": 257.7412, "ARG_OF_PERICENTER": 323.8357, "MEAN_ANOMALY": 36.1033, "EPHEMERIS_TYPE": 0, "CLASSIFICATION_TYPE": "U", "NORAD_CAT_ID": 34846, "ELEMENT_SET_NO": 999, "REV_AT_EPOCH": 87435, "BSTAR": 0.00064535999, "MEAN_MOTION_DOT": 2.342e-05, "MEAN_MOTION_DDOT": 0}, "tle": {"line1": "1 34846U 93036ABQ 25348.89678143  .00002342  00000+0  64536-3 0  9991", "line2": "2 34846  74.0309 257.7412 0026136 323.8357  36.1033 14.47230396874359"}}, "geometry": {"type": "Point", "coordinates": [151.8945150004663, -73.47983391084605]}}, {"type": "Feature", "properties": {"norad_id": 34852, "name": "COSMOS 2251 DEB", "group": "cosmos-2251-debris", "lat": -54.711996422380494, "lon": 102.13892139740743, "alt_km": 781.377749888612, "timestamp": "2025-12-15T07:02:38.010072+00:00", "meta": {"OBJECT_NAME": "COSMOS 2251 DEB", "OBJECT_ID": "1993-036ABW", "EPOCH": "2025-12-14T11:33:36.116064", "MEAN_MOTION": 14.37006693, "ECCENTRICITY": 0.00162936, "INCLINATION": 74.033, "RA_OF_ASC_NODE": 259.7687, "ARG_OF_PERICENTER": 2.5812, "MEAN_ANOMALY": 357.5423, "EPHEMERIS_TYPE": 0, "CLASSIFICATION_TYPE": "U", "NORAD_CAT_ID": 34852, "ELEMENT_SET_NO": 999, "REV_AT_EPOCH": 87559, "BSTAR": 0.0001528022, "MEAN_MOTION_DOT": 4.27e-06, "MEAN_MOTION_DDOT": 0}, "tle": {"line1": "1 34852U 93036ABW 25348.48166801  .00000427  00000+0  15280-3 0  9990", "line2": "2 34852  74.0330 259.7687 0016293   2.5812 357.5423 14.37006693875596"}}, "geometry": {"type": "Point", "coordinates": [102.13892139740743, -54.711996422380494]}}, {"type": "Feature", "properties": {"norad_id": 34854, "name": "COSMOS 2251 DEB", "group": "cosmos-2251-debris", "lat": 33.15343630202645, "lon": -37.20401087318971, "alt_km": 660.0281675966398, "timestamp": "2025-12-15T07:02:38.010082+00:00", "meta": {"OBJECT_NAME": "COSMOS 2251 DEB", "OBJECT_ID": "1993-036ABY", "EPOCH": "2025-12-12T18:13:14.177568", "MEAN_MOTION": 14.76625947, "ECCENTRICITY": 0.00661438, "INCLINATION": 74.0288, "RA_OF_ASC_NODE": 158.5442, "ARG_OF_PERICENTER": 270.2181, "MEAN_ANOMALY": 89.1414, "EPHEMERIS_TYPE": 0, "CLASSIFICATION_TYPE": "U", "NORAD_CAT_ID": 34854, "ELEMENT_SET_NO": 999, "REV_AT_EPOCH": 71882, "BSTAR": 0.0010403851, "MEAN_MOTION_DOT": 7.508e-05, "MEAN_MOTION_DDOT": 0}, "tle": {"line1": "1 34854U 93036ABY 25346.75919187  .00007508  00000+0  10404-2 0  9992", "line2": "2 34854  74.0288 158.5442 0066143 270.2181  89.1414 14.76625947718829"}}, "geometry": {"type": "Point", "coordinates": [-37.20401087318971, 33.15343630202645]}}, {"type": "Feature", "properties": {"norad_id": 34856, "name": "COSMOS 2251 DEB", "group": "cosmos-2251-debris", "lat": 47.07935022621239, "lon": -118.37939161863055, "alt_km": 541.9941186450269, "timestamp": "2025-12-15T07:02:38.010093+00:00", "meta": {"OBJECT_NAME": "COSMOS 2251 DEB", "OBJECT_ID": "1993-036ACA", "EPOCH": "2025-12-14T13:00:38.339424", "MEAN_MOTION": 15.06185391, "ECCENTRICITY": 0.00326586, "INCLINATION": 73.9962, "RA_OF_ASC_NODE": 81.1429, "ARG_OF_PERICENTER": 218.971, "MEAN_ANOMALY": 159.1858, "EPHEMERIS_TYPE": 0, "CLASSIFICATION_TYPE": "U", "NORAD_CAT_ID": 34856, "ELEMENT_SET_NO": 999, "REV_AT_EPOCH": 89139, "BSTAR": 0.0015675649, "MEAN_MOTION_DOT": 0.0002328, "MEAN_MOTION_DDOT": 0}, "tle": {"line1": "1 34856U 93036ACA 25348.54211041  .00023280  00000+0  15676-2 0  9998", "line2": "2 34856  73.9962  81.1429 0032658 218.9710 159.1858 15.06185391891397"}}, "geometry": {"type": "Point", "coordinates": [-118.37939161863055, 47.07935022621239]}}, {"type": "Feature", "properties": {"norad_id": 34857, "name": "COSMOS 2251 DEB", "group": "cosmos-2251-debris", "lat": 61.67910402283362, "lon": 134.0913540466084, "alt_km": 733.8865937864075, "timestamp": "2025-12-15T07:02:38.010103+00:00", "meta": {"OBJECT_NAME": "COSMOS 2251 DEB", "OBJECT_ID": "1993-036ACB", "EPOCH": "2025-12-14T18:15:50.086368", "MEAN_MOTION": 14.58918556, "ECCENTRICITY": 0.00657826, "INCLINATION": 74.0152, "RA_OF_ASC_NODE": 102.9729, "ARG_OF_PERICENTER": 227.1147, "MEAN_ANOMALY": 283.9047, "EPHEMERIS_TYPE": 0, "CLASSIFICATION_TYPE": "U", "NORAD_CAT_ID": 34857, "ELEMENT_SET_NO": 999, "REV_AT_EPOCH": 87930, "BSTAR": 0.0010168968, "MEAN_MOTION_DOT": 4.884e-05, "MEAN_MOTION_DDOT": 0}, "tle": {"line1": "1 34857U 93036ACB 25348.76099637  .00004884  00000+0  10169-2 0  9999", "line2": "2 34857  74.0152 102.9729 0065782 227.1147 283.9047 14.58918556879302"}}, "geometry": {"type": "Point", "coordinates": [134.0913540466084, 61.67910402283362]}}, {"type": "Feature", "properties": {"norad_id": 34859, "name": "COSMOS 2251 DEB", "group": "cosmos-2251-debris", "lat": 4.610880001746647, "lon": 153.02179784259167, "alt_km": 522.921871969028, "timestamp": "2025-12-15T07:02:38.010113+00:00", "meta": {"OBJECT_NAME": "COSMOS 2251 DEB", "OBJECT_ID": "1993-036ACD", "EPOCH": "2025-12-13T10:27:28.319616", "MEAN_MOTION": 15.14950815, "ECCENTRICITY": 0.00020891, "INCLINATION": 74.0317, "RA_OF_ASC_NODE": 338.2099, "ARG_OF_PERICENTER": 342.6349, "MEAN_ANOMALY": 143.1101, "EPHEMERIS_TYPE": 0, "CLASSIFICATION_TYPE": "U", "NORAD_CAT_ID": 34859, "ELEMENT_SET_NO": 999, "REV_AT_EPOCH": 88369, "BSTAR": 0.0080515741, "MEAN_MOTION_DOT": 0.00153394, "MEAN_MOTION_DDOT": 0}, "tle": {"line1": "1 34859U 93036ACD 25347.43574444  .00153394  00000+0  80516-2 0  9992", "line2": "2 34859  74.0317 338.2099 0002089 342.6349 143.1101 15.14950815883691"}}, "geometry": {"type": "Point", "coordinates": [153.02179784259167, 4.610880001746647]}}, {"type": "Feature", "properties": {"norad_id": 34861, "name": "COSMOS 2251 DEB", "group": "cosmos-2251-debris", "lat": -31.19114484386576, "lon": 35.64219764865485, "alt_km": 562.6020758997174, "timestamp": "2025-12-15T07:02:38.010123+00:00", "meta": {"OBJECT_NAME": "COSMOS 2251 DEB", "OBJECT_ID": "1993-036ACF", "EPOCH": "2025-12-14T22:23:33.182880", "MEAN_MOTION": 15.02732232, "ECCENTRICITY": 0.00072969, "INCLINATION": 74.0188, "RA_OF_ASC_NODE": 46.3699, "ARG_OF_PERICENTER": 40.6265, "MEAN_ANOMALY": 137.686, "EPHEMERIS_TYPE": 0, "CLASSIFICATION_TYPE": "U", "NORAD_CAT_ID": 34861, "ELEMENT_SET_NO": 999, "REV_AT_EPOCH": 88125, "BSTAR": 0.0015301121, "MEAN_MOTION_DOT": 0.00020479, "MEAN_MOTION_DDOT": 0}, "tle": {"line1": "1 34861U 93036ACF 25348.93302295  .00020479  00000+0  15301-2 0  9991", "line2": "2 34861  74.0188  46.3699 0007296  40.6265 137.6860 15.02732232881258"}}, "geometry": {"type": "Point", "coordinates": [35.64219764865485, -31.19114484386576]}}, {"type": "Feature", "properties": {"norad_id": 34874, "name": "COSMOS 2251 DEB", "group": "cosmos-2251-debris", "lat": 28.15605073857644, "lon": 77.8855980766499, "alt_km": 753.0474143682559, "timestamp": "2025-12-15T07:02:38.010134+00:00", "meta": {"OBJECT_NAME": "COSMOS 2251 DEB", "OBJECT_ID": "1993-036ACM", "EPOCH": "2025-12-14T16:34:14.608704", "MEAN_MOTION": 14.36321954, "ECCENTRICITY": 0.00509023, "INCLINATION": 74.0398, "RA_OF_ASC_NODE": 70.1822, "ARG_OF_PERICENTER": 94.8958, "MEAN_ANOMALY": 58.1509, "EPHEMERIS_TYPE": 0, "CLASSIFICATION_TYPE": "U", "NORAD_CAT_ID": 34874, "ELEMENT_SET_NO": 999, "REV_AT_EPOCH": 87072, "BSTAR": 0.00076670437, "MEAN_MOTION_DOT": 2.25e-05, "MEAN_MOTION_DDOT": 0}, "tle": {"line1": "1 34874U 93036ACM 25348.69044686  .00002250  00000+0  76670-3 0  9999", "line2": "2 34874  74.0398  70.1822 0050902  94.8958  58.1509 14.36321954870728"}}, "geometry": {"type": "Point", "coordinates": [77.8855980766499, 28.15605073857644]}}]}